ORBCOMM FM37            
1 33064U 08031E   25326.47154617  .00002013  00000+0  28774-3 0  9997
2 33064  48.4397 310.7982 0005627 333.3251 168.1770 14.80486056937497
ORBCOMM FM40            
1 33065U 08031F   25326.33801883  .00003145  00000+0  40958-3 0  9992
2 33065  48.4413 292.7227 0006505 348.8587 164.5855 14.82957029937621
VESSELSAT 1             
1 37840U 11058C   25326.04367344  .00000382  00000+0  63566-4 0  9998
2 37840  19.9610 218.6740 0013756 122.9877 237.1851 14.11392599728633
ORBCOMM FM109           
1 40086U 14040A   25326.45049211  .00000738  00000+0  19376-3 0  9997
2 40086  47.0047 348.6914 0002095 320.7498  39.3236 14.58487497604166
ORBCOMM FM107           
1 40087U 14040B   25326.47084499  .00000717  00000+0  18902-3 0  9998
2 40087  47.0064 349.4927 0002042 278.9022  81.1632 14.58564965604248
ORBCOMM FM106           
1 40088U 14040C   25325.95447959  .00001060  00000+0  20627-3 0  9994
2 40088  47.0585 161.3200 0016064  80.4118 279.8587 14.69946016606681
ORBCOMM FM111           
1 40089U 14040D   25326.47171687  .00003079  00000+0  35688-3 0  9990
2 40089  47.0014 347.2860 0029627 232.7915 127.0277 14.87517200613780
